[{"OBJECT_NAME":"OPS 6582 (TRANSIT 5B-5)","OBJECT_ID":"1964-083D","EPOCH":"2026-04-05T12:39:41.239296","MEAN_MOTION":13.57005556,"ECCENTRICITY":0.00432411,"INCLINATION":90.079,"RA_OF_ASC_NODE":202.4449,"ARG_OF_PERICENTER":128.9231,"MEAN_ANOMALY":242.715,"EPHEMERIS_TYPE":0,"CLASSIFICATION_TYPE":"U","NORAD_CAT_ID":965,"ELEMENT_SET_NO":999,"REV_AT_EPOCH":3376,"BSTAR":9.6376474e-5,"MEAN_MOTION_DOT":7.9e-7,"MEAN_MOTION_DDOT":0},{"OBJECT_NAME":"LES-1","OBJECT_ID":"1965-008C","EPOCH":"2026-04-05T08:39:29.212128","MEAN_MOTION":9.88355029,"ECCENTRICITY":0.00155491,"INCLINATION":32.1409,"RA_OF_ASC_NODE":217.2368,"ARG_OF_PERICENTER":7.1765,"MEAN_ANOMALY":352.8953,"EPHEMERIS_TYPE":0,"CLASSIFICATION_TYPE":"U","NORAD_CAT_ID":1002,"ELEMENT_SET_NO":999,"REV_AT_EPOCH":20898,"BSTAR":-5.2984473e-5,"MEAN_MOTION_DOT":8.0e-8,"MEAN_MOTION_DDOT":0},{"OBJECT_NAME":"SOLRAD 7B","OBJECT_ID":"1965-016D","EPOCH":"2026-04-05T13:06:21.920256","MEAN_MOTION":13.94966742,"ECCENTRICITY":0.00228656,"INCLINATION":70.0814,"RA_OF_ASC_NODE":30.6978,"ARG_OF_PERICENTER":221.7855,"MEAN_ANOMALY":138.1505,"EPHEMERIS_TYPE":0,"CLASSIFICATION_TYPE":"U","NORAD_CAT_ID":1291,"ELEMENT_SET_NO":999,"REV_AT_EPOCH":10657,"BSTAR":6.7675028e-5,"MEAN_MOTION_DOT":3.9e-7,"MEAN_MOTION_DDOT":0},{"OBJECT_NAME":"SECOR 4 (EGRS 4)","OBJECT_ID":"1965-027B","EPOCH":"2026-04-05T05:02:05.964864","MEAN_MOTION":12.92666131,"ECCENTRICITY":0.00321464,"INCLINATION":90.2558,"RA_OF_ASC_NODE":13.9054,"ARG_OF_PERICENTER":33.5978,"MEAN_ANOMALY":133.2145,"EPHEMERIS_TYPE":0,"CLASSIFICATION_TYPE":"U","NORAD_CAT_ID":1315,"ELEMENT_SET_NO":999,"REV_AT_EPOCH":87749,"BSTAR":-5.3679141e-5,"MEAN_MOTION_DOT":-7.0e-8,"MEAN_MOTION_DDOT":0},{"OBJECT_NAME":"TIROS 10","OBJECT_ID":"1965-051A","EPOCH":"2026-04-05T13:58:29.070624","MEAN_MOTION":14.41601884,"ECCENTRICITY":0.0054185,"INCLINATION":98.4925,"RA_OF_ASC_NODE":215.2708,"ARG_OF_PERICENTER":297.5631,"MEAN_ANOMALY":62.006,"EPHEMERIS_TYPE":0,"CLASSIFICATION_TYPE":"U","NORAD_CAT_ID":1430,"ELEMENT_SET_NO":999,"REV_AT_EPOCH":18545,"BSTAR":9.3611292e-5,"MEAN_MOTION_DOT":2.64e-6,"MEAN_MOTION_DDOT":0},{"OBJECT_NAME":"ALOUETTE 2","OBJECT_ID":"1965-098A","EPOCH":"2026-04-05T08:27:18.471168","MEAN_MOTION":12.282955,"ECCENTRICITY":0.13309842,"INCLINATION":79.8027,"RA_OF_ASC_NODE":338.6454,"ARG_OF_PERICENTER":20.2338,"MEAN_ANOMALY":344.6701,"EPHEMERIS_TYPE":0,"CLASSIFICATION_TYPE":"U","NORAD_CAT_ID":1804,"ELEMENT_SET_NO":999,"REV_AT_EPOCH":67033,"BSTAR":0.00034371764,"MEAN_MOTION_DOT":1.061e-5,"MEAN_MOTION_DDOT":0},{"OBJECT_NAME":"OV3-3","OBJECT_ID":"1966-070A","EPOCH":"2026-04-05T14:01:26.010912","MEAN_MOTION":13.43830343,"ECCENTRICITY":0.10182687,"INCLINATION":81.3292,"RA_OF_ASC_NODE":35.0024,"ARG_OF_PERICENTER":345.9866,"MEAN_ANOMALY":11.4822,"EPHEMERIS_TYPE":0,"CLASSIFICATION_TYPE":"U","NORAD_CAT_ID":2389,"ELEMENT_SET_NO":999,"REV_AT_EPOCH":58921,"BSTAR":0.0011323776,"MEAN_MOTION_DOT":0.00025086,"MEAN_MOTION_DDOT":0},{"OBJECT_NAME":"SECOR 7 (EGRS 7)","OBJECT_ID":"1966-077B","EPOCH":"2026-04-03T12:10:40.274976","MEAN_MOTION":8.59615602,"ECCENTRICITY":0.00117619,"INCLINATION":90.3255,"RA_OF_ASC_NODE":276.5752,"ARG_OF_PERICENTER":130.248,"MEAN_ANOMALY":229.9402,"EPHEMERIS_TYPE":0,"CLASSIFICATION_TYPE":"U","NORAD_CAT_ID":2411,"ELEMENT_SET_NO":999,"REV_AT_EPOCH":87096,"BSTAR":-0.0097570553,"MEAN_MOTION_DOT":-1.8e-7,"MEAN_MOTION_DDOT":0},{"OBJECT_NAME":"ERS 15","OBJECT_ID":"1966-077C","EPOCH":"2026-04-03T11:02:58.229088","MEAN_MOTION":8.5907947,"ECCENTRICITY":0.000727,"INCLINATION":90.3263,"RA_OF_ASC_NODE":276.3679,"ARG_OF_PERICENTER":137.8907,"MEAN_ANOMALY":222.2503,"EPHEMERIS_TYPE":0,"CLASSIFICATION_TYPE":"U","NORAD_CAT_ID":2412,"ELEMENT_SET_NO":999,"REV_AT_EPOCH":38404,"BSTAR":0,"MEAN_MOTION_DOT":2.0e-8,"MEAN_MOTION_DDOT":0},{"OBJECT_NAME":"ISIS 1","OBJECT_ID":"1969-009A","EPOCH":"2026-04-05T10:43:12.488448","MEAN_MOTION":11.30421443,"ECCENTRICITY":0.17077513,"INCLINATION":88.449,"RA_OF_ASC_NODE":152.3868,"ARG_OF_PERICENTER":35.1848,"MEAN_ANOMALY":335.0765,"EPHEMERIS_TYPE":0,"CLASSIFICATION_TYPE":"U","NORAD_CAT_ID":3669,"ELEMENT_SET_NO":999,"REV_AT_EPOCH":35155,"BSTAR":0.00011523403,"MEAN_MOTION_DOT":1.78e-6,"MEAN_MOTION_DDOT":0},{"OBJECT_NAME":"SECOR 13 (EGRS 13)","OBJECT_ID":"1969-037B","EPOCH":"2026-04-05T09:45:13.658976","MEAN_MOTION":13.42974037,"ECCENTRICITY":0.00402589,"INCLINATION":99.6602,"RA_OF_ASC_NODE":330.0158,"ARG_OF_PERICENTER":70.4323,"MEAN_ANOMALY":103.3363,"EPHEMERIS_TYPE":0,"CLASSIFICATION_TYPE":"U","NORAD_CAT_ID":3891,"ELEMENT_SET_NO":999,"REV_AT_EPOCH":79198,"BSTAR":5.3715011e-5,"MEAN_MOTION_DOT":-1.1e-7,"MEAN_MOTION_DDOT":0},{"OBJECT_NAME":"ATS 5","OBJECT_ID":"1969-069A","EPOCH":"2026-04-05T05:50:02.964768","MEAN_MOTION":0.99496349,"ECCENTRICITY":0.0005902,"INCLINATION":0.2464,"RA_OF_ASC_NODE":197.7955,"ARG_OF_PERICENTER":84.9355,"MEAN_ANOMALY":344.4455,"EPHEMERIS_TYPE":0,"CLASSIFICATION_TYPE":"U","NORAD_CAT_ID":4068,"ELEMENT_SET_NO":999,"REV_AT_EPOCH":4560,"BSTAR":0,"MEAN_MOTION_DOT":-2.05e-6,"MEAN_MOTION_DDOT":0},{"OBJECT_NAME":"OPS 7613 (P/L 4)","OBJECT_ID":"1969-082E","EPOCH":"2026-04-05T14:02:34.509696","MEAN_MOTION":13.95984606,"ECCENTRICITY":0.00225403,"INCLINATION":70.0135,"RA_OF_ASC_NODE":258.9837,"ARG_OF_PERICENTER":229.4459,"MEAN_ANOMALY":197.4734,"EPHEMERIS_TYPE":0,"CLASSIFICATION_TYPE":"U","NORAD_CAT_ID":4237,"ELEMENT_SET_NO":999,"REV_AT_EPOCH":87617,"BSTAR":8.3379928e-5,"MEAN_MOTION_DOT":6.2e-7,"MEAN_MOTION_DDOT":0},{"OBJECT_NAME":"OPS 7613 (P/L 1)","OBJECT_ID":"1969-082B","EPOCH":"2026-04-05T09:20:51.094464","MEAN_MOTION":13.99176932,"ECCENTRICITY":0.00188836,"INCLINATION":70.0074,"RA_OF_ASC_NODE":121.4019,"ARG_OF_PERICENTER":169.0624,"MEAN_ANOMALY":191.0898,"EPHEMERIS_TYPE":0,"CLASSIFICATION_TYPE":"U","NORAD_CAT_ID":4256,"ELEMENT_SET_NO":999,"REV_AT_EPOCH":88028,"BSTAR":0.000114941,"MEAN_MOTION_DOT":1.14e-6,"MEAN_MOTION_DDOT":0},{"OBJECT_NAME":"SHINSEI (MS-F2)","OBJECT_ID":"1971-080A","EPOCH":"2026-04-05T05:01:53.770368","MEAN_MOTION":12.74248577,"ECCENTRICITY":0.06399397,"INCLINATION":32.0589,"RA_OF_ASC_NODE":58.8986,"ARG_OF_PERICENTER":276.5201,"MEAN_ANOMALY":76.2967,"EPHEMERIS_TYPE":0,"CLASSIFICATION_TYPE":"U","NORAD_CAT_ID":5485,"ELEMENT_SET_NO":999,"REV_AT_EPOCH":53994,"BSTAR":-7.636217e-6,"MEAN_MOTION_DOT":2.7e-7,"MEAN_MOTION_DDOT":0},{"OBJECT_NAME":"PROSPERO (BLACK ARROW)","OBJECT_ID":"1971-093A","EPOCH":"2026-04-05T09:52:19.614432","MEAN_MOTION":14.01477236,"ECCENTRICITY":0.05030176,"INCLINATION":82.0424,"RA_OF_ASC_NODE":354.71,"ARG_OF_PERICENTER":75.8313,"MEAN_ANOMALY":289.8189,"EPHEMERIS_TYPE":0,"CLASSIFICATION_TYPE":"U","NORAD_CAT_ID":5580,"ELEMENT_SET_NO":999,"REV_AT_EPOCH":73833,"BSTAR":0.00054067632,"MEAN_MOTION_DOT":2.554e-5,"MEAN_MOTION_DDOT":0},{"OBJECT_NAME":"OPS 7898 (P/L 2)","OBJECT_ID":"1971-110C","EPOCH":"2026-04-05T13:22:20.605152","MEAN_MOTION":13.74752675,"ECCENTRICITY":0.00106157,"INCLINATION":69.9889,"RA_OF_ASC_NODE":152.8094,"ARG_OF_PERICENTER":262.4519,"MEAN_ANOMALY":97.5369,"EPHEMERIS_TYPE":0,"CLASSIFICATION_TYPE":"U","NORAD_CAT_ID":5680,"ELEMENT_SET_NO":999,"REV_AT_EPOCH":33823,"BSTAR":7.1589864e-5,"MEAN_MOTION_DOT":1.8e-7,"MEAN_MOTION_DDOT":0}]
