OPS 6582 (TRANSIT 5B-5) 
1 00965U 64083D   26095.52756064  .00000079  00000+0  96376-4 0  9998
2 00965  90.0790 202.4449 0043241 128.9231 242.7150 13.57005556 33769
LES-1                   
1 01002U 65008C   26095.36075477  .00000008  00000+0 -52984-4 0  9993
2 01002  32.1409 217.2368 0015549   7.1765 352.8953  9.88355029208984
SOLRAD 7B               
1 01291U 65016D   26095.54608704  .00000039  00000+0  67675-4 0  9993
2 01291  70.0814  30.6978 0022865 221.7855 138.1505 13.94966742106574
SECOR 4 (EGRS 4)        
1 01315U 65027B   26095.20979126 -.00000007  00000+0 -53679-4 0  9990
2 01315  90.2558  13.9054 0032146  33.5978 133.2145 12.92666131877495
TIROS 10                
1 01430U 65051A   26095.58228091  .00000264  00000+0  93611-4 0  9997
2 01430  98.4925 215.2708 0054185 297.5631  62.0060 14.41601884185452
ALOUETTE 2              
1 01804U 65098A   26095.35229712  .00001061  00000+0  34372-3 0  9993
2 01804  79.8027 338.6454 1330984  20.2338 344.6701 12.28295500670335
OV3-3                   
1 02389U 66070A   26095.58432883  .00025086  00000+0  11324-2 0  9997
2 02389  81.3292  35.0024 1018268 345.9866  11.4822 13.43830343589215
SECOR 7 (EGRS 7)        
1 02411U 66077B   26093.50741059 -.00000018  00000+0 -97571-2 0  9996
2 02411  90.3255 276.5752 0011761 130.2480 229.9402  8.59615602870962
ERS 15                  
1 02412U 66077C   26093.46039617  .00000002  00000+0  00000+0 0  9991
2 02412  90.3263 276.3679 0007270 137.8907 222.2503  8.59079470384049
ISIS 1                  
1 03669U 69009A   26095.44667232  .00000178  00000+0  11523-3 0  9994
2 03669  88.4490 152.3868 1707751  35.1848 335.0765 11.30421443351550
SECOR 13 (EGRS 13)      
1 03891U 69037B   26095.40640809 -.00000011  00000+0  53715-4 0  9996
2 03891  99.6602 330.0158 0040258  70.4323 103.3363 13.42974037791986
ATS 5                   
1 04068U 69069A   26095.24308987 -.00000205  00000+0  00000+0 0  9997
2 04068   0.2464 197.7955 0005902  84.9355 344.4455  0.99496349 45606
OPS 7613 (P/L 4)        
1 04237U 69082E   26095.58512164  .00000062  00000+0  83380-4 0  9998
2 04237  70.0135 258.9837 0022540 229.4459 197.4734 13.95984606876179
OPS 7613 (P/L 1)        
1 04256U 69082B   26095.38948026  .00000114  00000+0  11494-3 0  9991
2 04256  70.0074 121.4019 0018883 169.0624 191.0898 13.99176932880283
SHINSEI (MS-F2)         
1 05485U 71080A   26095.20965012  .00000027  00000+0 -76362-5 0  9993
2 05485  32.0589  58.8986 0639939 276.5201  76.2967 12.74248577539941
PROSPERO (BLACK ARROW)  
1 05580U 71093A   26095.41133813  .00002554  00000+0  54068-3 0  9995
2 05580  82.0424 354.7100 0503017  75.8313 289.8189 14.01477236738337
OPS 7898 (P/L 2)        
1 05680U 71110C   26095.55718293  .00000018  00000+0  71590-4 0  9995
2 05680  69.9889 152.8094 0010615 262.4519  97.5369 13.74752675338236
